0 FENGYUN 1C DEB
1 30044U 99025NV  13281.43296650  .00001730  00000-0  84161-3 0  8135
2 30044 098.1437 080.9274 0136648 334.5154 077.8441 14.14610582346903
0 FENGYUN 1C DEB
1 30044U 99025NV  13283.13063608  .00001935  00000-0  93881-3 0  8146
2 30044 098.1436 082.4774 0136578 329.5562 083.4474 14.14621377347143
0 FENGYUN 1C DEB
1 30044U 99025NV  13285.69159546  .00001892  00000-0  91825-3 0  8166
2 30044 098.1438 084.8159 0136571 322.0667 165.5686 14.14630897347509
0 FENGYUN 1C DEB
1 30044U 99025NV  13287.16243425  .00002395  00000-0  11576-2 0  8174
2 30044 098.1430 086.1579 0136578 317.8228 096.0588 14.14635496347716
0 FENGYUN 1C DEB
1 30044U 99025NV  13288.43536619  .00003071  00000-0  14787-2 0  8185
2 30044 098.1430 087.3202 0136589 314.1048 098.7446 14.14644303347892
0 FENGYUN 1C DEB
1 30044U 99025NV  13290.13291512  .00003032  00000-0  14598-2 0  8193
2 30044 098.1435 088.8705 0136589 309.1334 103.9565 14.14651459348132
0 FENGYUN 1C DEB
1 30044U 99025NV  13291.40574238  .00003035  00000-0  14612-2 0  8205
2 30044 098.1438 090.0328 0136632 305.4112 106.1878 14.14657815348317
0 FENGYUN 1C DEB
1 30044U 99025NV  13293.10508672  .00003294  00000-0  15840-2 0  8215
2 30044 098.1443 091.5845 0136629 300.4561 120.6114 14.14666418348551
0 FENGYUN 1C DEB
1 30044U 99025NV  13294.67495937  .00003666  00000-0  17600-2 0  8227
2 30044 098.1445 093.0183 0136650 295.8834 195.7067 14.14676907348777
